ONEWEB-0572             
1 55151U 23004M   25229.54685139  .00000112  00000+0  25500-3 0  9995
2 55151  87.9033  66.2864 0001593  91.3052 268.8262 13.17645473127497
ONEWEB-0573             
1 55152U 23004N   25229.22893473 -.00000017  00000+0 -76980-4 0  9998
2 55152  87.9127  35.8777 0001037 114.1367 245.9873 13.18687778129630
ONEWEB-0588             
1 55153U 23004P   25229.52585054 -.00000009  00000+0 -55747-4 0  9994
2 55153  87.9132  35.8036 0001547 107.0645 253.0656 13.18687045129671
ONEWEB-0598             
1 55154U 23004Q   25229.57541515  .00000509  00000+0  14014-2 0  9997
2 55154  87.8784  81.5888 0001241  67.4598 292.6661 13.11416874126118
ONEWEB-0599             
1 55155U 23004R   25229.58396255  .00000095  00000+0  21172-3 0  9992
2 55155  87.9026  66.2831 0001731  81.5098 278.6230 13.17650706127503
ONEWEB-0614             
1 55156U 23004S   25229.57032994  .00000353  00000+0  95908-3 0  9994
2 55156  87.8784  81.5996 0001823  94.2234 265.9102 13.11417601126045
ONEWEB-0616             
1 55157U 23004T   25229.55022694  .00000114  00000+0  25941-3 0  9994
2 55157  87.9031  66.2806 0002399  64.2543 295.8836 13.17649441127717
ONEWEB-0617             
1 55158U 23004U   25229.55845290  .00000013  00000+0 -22340-6 0  9992
2 55158  87.8781  81.5804 0001613  95.5720 264.5592 13.11418209126068
ONEWEB-0618             
1 55159U 23004V   25229.60567728  .00001054  00000+0  17986-3 0  9998
2 55159  86.9094 299.6612 0013464 342.1950  17.8791 14.67973708136577
ONEWEB-0619             
1 55160U 23004W   25229.58229365 -.00000238  00000+0 -64604-3 0  9993
2 55160  87.9021  66.2496 0002274  91.2583 268.8809 13.17652532127615
ONEWEB-0620             
1 55161U 23004X   25229.55336260 -.00000260  00000+0 -76926-3 0  9999
2 55161  87.8781  81.6029 0001496  84.5661 275.5637 13.11418253126031
ONEWEB-0621             
1 55162U 23004Y   25229.58050842  .00000669  00000+0  18512-2 0  9999
2 55162  87.8787  81.5547 0001940  89.4343 270.7007 13.11416586126010
ONEWEB-0622             
1 55163U 23004Z   25229.58558748  .00000550  00000+0  15169-2 0  9992
2 55163  87.8780  81.5757 0001689 111.0861 249.0448 13.11415422126009
ONEWEB-0623             
1 55164U 23004AA  25229.57720799 -.00000163  00000+0 -45183-3 0  9991
2 55164  87.9022  66.3074 0002130 107.6549 252.4815 13.17648549127606
ONEWEB-0624             
1 55165U 23004AB  25229.50093041  .00000396  00000+0  10587-2 0  9993
2 55165  87.8857  51.0076 0001780  90.6947 269.4385 13.12943082128222
ONEWEB-0625             
1 55166U 23004AC  25229.56709355  .00000104  00000+0  23390-3 0  9996
2 55166  87.9021  66.3062 0001852  82.6704 277.4638 13.17649744127595
ONEWEB-0626             
1 55167U 23004AD  25229.55696924  .00000096  00000+0  21364-3 0  9992
2 55167  87.9021  66.3069 0001284  79.1321 280.9955 13.17649495127592
