[{"OBJECT_NAME":"ONEWEB-0572","OBJECT_ID":"2023-004M","EPOCH":"2025-08-17T13:07:27.960096","MEAN_MOTION":13.17645473,"ECCENTRICITY":0.0001593,"INCLINATION":87.9033,"RA_OF_ASC_NODE":66.2864,"ARG_OF_PERICENTER":91.3052,"MEAN_ANOMALY":268.8262,"EPHEMERIS_TYPE":0,"CLASSIFICATION_TYPE":"U","NORAD_CAT_ID":55151,"ELEMENT_SET_NO":999,"REV_AT_EPOCH":12749,"BSTAR":0.000255,"MEAN_MOTION_DOT":1.12e-6,"MEAN_MOTION_DDOT":0},{"OBJECT_NAME":"ONEWEB-0573","OBJECT_ID":"2023-004N","EPOCH":"2025-08-17T05:29:39.960672","MEAN_MOTION":13.18687778,"ECCENTRICITY":0.0001037,"INCLINATION":87.9127,"RA_OF_ASC_NODE":35.8777,"ARG_OF_PERICENTER":114.1367,"MEAN_ANOMALY":245.9873,"EPHEMERIS_TYPE":0,"CLASSIFICATION_TYPE":"U","NORAD_CAT_ID":55152,"ELEMENT_SET_NO":999,"REV_AT_EPOCH":12963,"BSTAR":-7.698e-5,"MEAN_MOTION_DOT":-1.7e-7,"MEAN_MOTION_DDOT":0},{"OBJECT_NAME":"ONEWEB-0588","OBJECT_ID":"2023-004P","EPOCH":"2025-08-17T12:37:13.486656","MEAN_MOTION":13.18687045,"ECCENTRICITY":0.0001547,"INCLINATION":87.9132,"RA_OF_ASC_NODE":35.8036,"ARG_OF_PERICENTER":107.0645,"MEAN_ANOMALY":253.0656,"EPHEMERIS_TYPE":0,"CLASSIFICATION_TYPE":"U","NORAD_CAT_ID":55153,"ELEMENT_SET_NO":999,"REV_AT_EPOCH":12967,"BSTAR":-5.5747e-5,"MEAN_MOTION_DOT":-9.0e-8,"MEAN_MOTION_DDOT":0},{"OBJECT_NAME":"ONEWEB-0598","OBJECT_ID":"2023-004Q","EPOCH":"2025-08-17T13:48:35.868960","MEAN_MOTION":13.11416874,"ECCENTRICITY":0.0001241,"INCLINATION":87.8784,"RA_OF_ASC_NODE":81.5888,"ARG_OF_PERICENTER":67.4598,"MEAN_ANOMALY":292.6661,"EPHEMERIS_TYPE":0,"CLASSIFICATION_TYPE":"U","NORAD_CAT_ID":55154,"ELEMENT_SET_NO":999,"REV_AT_EPOCH":12611,"BSTAR":0.0014014,"MEAN_MOTION_DOT":5.09e-6,"MEAN_MOTION_DDOT":0},{"OBJECT_NAME":"ONEWEB-0599","OBJECT_ID":"2023-004R","EPOCH":"2025-08-17T14:00:54.364320","MEAN_MOTION":13.17650706,"ECCENTRICITY":0.0001731,"INCLINATION":87.9026,"RA_OF_ASC_NODE":66.2831,"ARG_OF_PERICENTER":81.5098,"MEAN_ANOMALY":278.623,"EPHEMERIS_TYPE":0,"CLASSIFICATION_TYPE":"U","NORAD_CAT_ID":55155,"ELEMENT_SET_NO":999,"REV_AT_EPOCH":12750,"BSTAR":0.00021172,"MEAN_MOTION_DOT":9.5e-7,"MEAN_MOTION_DDOT":0},{"OBJECT_NAME":"ONEWEB-0614","OBJECT_ID":"2023-004S","EPOCH":"2025-08-17T13:41:16.506816","MEAN_MOTION":13.11417601,"ECCENTRICITY":0.0001823,"INCLINATION":87.8784,"RA_OF_ASC_NODE":81.5996,"ARG_OF_PERICENTER":94.2234,"MEAN_ANOMALY":265.9102,"EPHEMERIS_TYPE":0,"CLASSIFICATION_TYPE":"U","NORAD_CAT_ID":55156,"ELEMENT_SET_NO":999,"REV_AT_EPOCH":12604,"BSTAR":0.00095908,"MEAN_MOTION_DOT":3.53e-6,"MEAN_MOTION_DDOT":0},{"OBJECT_NAME":"ONEWEB-0616","OBJECT_ID":"2023-004T","EPOCH":"2025-08-17T13:12:19.607616","MEAN_MOTION":13.17649441,"ECCENTRICITY":0.0002399,"INCLINATION":87.9031,"RA_OF_ASC_NODE":66.2806,"ARG_OF_PERICENTER":64.2543,"MEAN_ANOMALY":295.8836,"EPHEMERIS_TYPE":0,"CLASSIFICATION_TYPE":"U","NORAD_CAT_ID":55157,"ELEMENT_SET_NO":999,"REV_AT_EPOCH":12771,"BSTAR":0.00025941,"MEAN_MOTION_DOT":1.14e-6,"MEAN_MOTION_DDOT":0},{"OBJECT_NAME":"ONEWEB-0617","OBJECT_ID":"2023-004U","EPOCH":"2025-08-17T13:24:10.330560","MEAN_MOTION":13.11418209,"ECCENTRICITY":0.0001613,"INCLINATION":87.8781,"RA_OF_ASC_NODE":81.5804,"ARG_OF_PERICENTER":95.572,"MEAN_ANOMALY":264.5592,"EPHEMERIS_TYPE":0,"CLASSIFICATION_TYPE":"U","NORAD_CAT_ID":55158,"ELEMENT_SET_NO":999,"REV_AT_EPOCH":12606,"BSTAR":-2.234e-7,"MEAN_MOTION_DOT":1.3e-7,"MEAN_MOTION_DDOT":0},{"OBJECT_NAME":"ONEWEB-0618","OBJECT_ID":"2023-004V","EPOCH":"2025-08-17T14:32:10.516992","MEAN_MOTION":14.67973708,"ECCENTRICITY":0.0013464,"INCLINATION":86.9094,"RA_OF_ASC_NODE":299.6612,"ARG_OF_PERICENTER":342.195,"MEAN_ANOMALY":17.8791,"EPHEMERIS_TYPE":0,"CLASSIFICATION_TYPE":"U","NORAD_CAT_ID":55159,"ELEMENT_SET_NO":999,"REV_AT_EPOCH":13657,"BSTAR":0.00017986,"MEAN_MOTION_DOT":1.054e-5,"MEAN_MOTION_DDOT":0},{"OBJECT_NAME":"ONEWEB-0619","OBJECT_ID":"2023-004W","EPOCH":"2025-08-17T13:58:30.171360","MEAN_MOTION":13.17652532,"ECCENTRICITY":0.0002274,"INCLINATION":87.9021,"RA_OF_ASC_NODE":66.2496,"ARG_OF_PERICENTER":91.2583,"MEAN_ANOMALY":268.8809,"EPHEMERIS_TYPE":0,"CLASSIFICATION_TYPE":"U","NORAD_CAT_ID":55160,"ELEMENT_SET_NO":999,"REV_AT_EPOCH":12761,"BSTAR":-0.00064604,"MEAN_MOTION_DOT":-2.38e-6,"MEAN_MOTION_DDOT":0},{"OBJECT_NAME":"ONEWEB-0620","OBJECT_ID":"2023-004X","EPOCH":"2025-08-17T13:16:50.528640","MEAN_MOTION":13.11418253,"ECCENTRICITY":0.0001496,"INCLINATION":87.8781,"RA_OF_ASC_NODE":81.6029,"ARG_OF_PERICENTER":84.5661,"MEAN_ANOMALY":275.5637,"EPHEMERIS_TYPE":0,"CLASSIFICATION_TYPE":"U","NORAD_CAT_ID":55161,"ELEMENT_SET_NO":999,"REV_AT_EPOCH":12603,"BSTAR":-0.00076926,"MEAN_MOTION_DOT":-2.6e-6,"MEAN_MOTION_DDOT":0},{"OBJECT_NAME":"ONEWEB-0621","OBJECT_ID":"2023-004Y","EPOCH":"2025-08-17T13:55:55.927488","MEAN_MOTION":13.11416586,"ECCENTRICITY":0.000194,"INCLINATION":87.8787,"RA_OF_ASC_NODE":81.5547,"ARG_OF_PERICENTER":89.4343,"MEAN_ANOMALY":270.7007,"EPHEMERIS_TYPE":0,"CLASSIFICATION_TYPE":"U","NORAD_CAT_ID":55162,"ELEMENT_SET_NO":999,"REV_AT_EPOCH":12601,"BSTAR":0.0018512,"MEAN_MOTION_DOT":6.69e-6,"MEAN_MOTION_DDOT":0},{"OBJECT_NAME":"ONEWEB-0622","OBJECT_ID":"2023-004Z","EPOCH":"2025-08-17T14:03:14.758272","MEAN_MOTION":13.11415422,"ECCENTRICITY":0.0001689,"INCLINATION":87.878,"RA_OF_ASC_NODE":81.5757,"ARG_OF_PERICENTER":111.0861,"MEAN_ANOMALY":249.0448,"EPHEMERIS_TYPE":0,"CLASSIFICATION_TYPE":"U","NORAD_CAT_ID":55163,"ELEMENT_SET_NO":999,"REV_AT_EPOCH":12600,"BSTAR":0.0015169,"MEAN_MOTION_DOT":5.5e-6,"MEAN_MOTION_DDOT":0},{"OBJECT_NAME":"ONEWEB-0623","OBJECT_ID":"2023-004AA","EPOCH":"2025-08-17T13:51:10.770336","MEAN_MOTION":13.17648549,"ECCENTRICITY":0.000213,"INCLINATION":87.9022,"RA_OF_ASC_NODE":66.3074,"ARG_OF_PERICENTER":107.6549,"MEAN_ANOMALY":252.4815,"EPHEMERIS_TYPE":0,"CLASSIFICATION_TYPE":"U","NORAD_CAT_ID":55164,"ELEMENT_SET_NO":999,"REV_AT_EPOCH":12760,"BSTAR":-0.00045183,"MEAN_MOTION_DOT":-1.63e-6,"MEAN_MOTION_DDOT":0},{"OBJECT_NAME":"ONEWEB-0624","OBJECT_ID":"2023-004AB","EPOCH":"2025-08-17T12:01:20.387424","MEAN_MOTION":13.12943082,"ECCENTRICITY":0.000178,"INCLINATION":87.8857,"RA_OF_ASC_NODE":51.0076,"ARG_OF_PERICENTER":90.6947,"MEAN_ANOMALY":269.4385,"EPHEMERIS_TYPE":0,"CLASSIFICATION_TYPE":"U","NORAD_CAT_ID":55165,"ELEMENT_SET_NO":999,"REV_AT_EPOCH":12822,"BSTAR":0.0010587,"MEAN_MOTION_DOT":3.96e-6,"MEAN_MOTION_DDOT":0},{"OBJECT_NAME":"ONEWEB-0625","OBJECT_ID":"2023-004AC","EPOCH":"2025-08-17T13:36:36.882720","MEAN_MOTION":13.17649744,"ECCENTRICITY":0.0001852,"INCLINATION":87.9021,"RA_OF_ASC_NODE":66.3062,"ARG_OF_PERICENTER":82.6704,"MEAN_ANOMALY":277.4638,"EPHEMERIS_TYPE":0,"CLASSIFICATION_TYPE":"U","NORAD_CAT_ID":55166,"ELEMENT_SET_NO":999,"REV_AT_EPOCH":12759,"BSTAR":0.0002339,"MEAN_MOTION_DOT":1.04e-6,"MEAN_MOTION_DDOT":0},{"OBJECT_NAME":"ONEWEB-0626","OBJECT_ID":"2023-004AD","EPOCH":"2025-08-17T13:22:02.142336","MEAN_MOTION":13.17649495,"ECCENTRICITY":0.0001284,"INCLINATION":87.9021,"RA_OF_ASC_NODE":66.3069,"ARG_OF_PERICENTER":79.1321,"MEAN_ANOMALY":280.9955,"EPHEMERIS_TYPE":0,"CLASSIFICATION_TYPE":"U","NORAD_CAT_ID":55167,"ELEMENT_SET_NO":999,"REV_AT_EPOCH":12759,"BSTAR":0.00021364,"MEAN_MOTION_DOT":9.6e-7,"MEAN_MOTION_DDOT":0}]
